NORAD_CAT_ID,OBJECT_NAME,OBJECT_TYPE,EPOCH,MEAN_MOTION,ECCENTRICITY,INCLINATION,RA_OF_ASC_NODE,ARG_OF_PERICENTER,MEAN_ANOMALY,BSTAR,MEAN_MOTION_DOT,MEAN_MOTION_DDOT,TLE_LINE0,TLE_LINE1,TLE_LINE2,SEMIMAJOR_AXIS,PERIOD,APOGEE,PERIGEE,DECAYED
55947.0,STARLINK-5851,PAYLOAD,2023-09-28 12:01:31,14.98322295,0.0002868,70.0026,16.3209,264.7915,95.2917,0.00010584,1.17e-05,0.0,0 STARLINK-5851,1 55947U 23037AK  23271.50106475  .00001170  00000-0  10584-3 0  9998,2 55947  70.0026  16.3209 0002868 264.7915  95.2917 14.98322295 30535,6950.217,96.107,574.075,570.088,0.0
55947.0,STARLINK-5851,PAYLOAD,2023-09-28 13:37:40,14.98314739,0.0002936,70.0027,16.1524,264.226,95.8564,0.00021887,2.518e-05,0.0,0 STARLINK-5851,1 55947U 23037AK  23271.56782653  .00002518  00000-0  21887-3 0  9997,2 55947  70.0027  16.1524 0002936 264.2260  95.8564 14.98314739 30200,6950.24,96.108,574.146,570.064,0.0
55947.0,STARLINK-5851,PAYLOAD,2023-09-28 16:49:56,14.98321526,0.0002931,70.0027,15.8161,264.6376,95.4449,0.00012152,1.357e-05,0.0,0 STARLINK-5851,1 55947U 23037AK  23271.70134563  .00001357  00000-0  12152-3 0  9999,2 55947  70.0027  15.8161 0002931 264.6376  95.4449 14.98321526 30222,6950.219,96.108,574.121,570.047,0.0
55947.0,STARLINK-5851,PAYLOAD,2023-09-29 12:03:32,14.98329821,0.0002926,70.0027,13.7958,264.8205,95.262,-5.5529e-05,-7.55e-06,0.0,0 STARLINK-5851,1 55947U 23037AK  23272.50246516 -.00000755  00000-0 -55529-4 0  9999,2 55947  70.0027  13.7958 0002926 264.8205  95.2620 14.98329821 30685,6950.193,96.107,574.092,570.025,0.0
55947.0,STARLINK-5851,PAYLOAD,2023-09-29 13:39:40,14.98335707,0.0002727,70.0027,13.6274,261.0035,99.0815,-0.0001268,-1.606e-05,0.0,0 STARLINK-5851,1 55947U 23037AK  23272.56922350 -.00001606  00000-0 -12680-3 0  9998,2 55947  70.0027  13.6274 0002727 261.0035  99.0815 14.98335707 30356,6950.175,96.107,573.936,570.145,0.0
55947.0,STARLINK-5851,PAYLOAD,2023-09-29 16:51:56,14.98333768,0.0002895,70.0028,13.2907,262.4953,97.5878,2.86e-05,2.48e-06,0.0,0 STARLINK-5851,1 55947U 23037AK  23272.70274021  .00000248  00000-0  28600-4 0  9998,2 55947  70.0028  13.2907 0002895 262.4953  97.5878 14.98333768 30713,6950.181,96.107,574.058,570.034,0.0
55947.0,STARLINK-5851,PAYLOAD,2023-09-30 16:53:56,14.98339214,0.0002902,70.0024,10.767,265.0646,95.0181,0.00012188,1.362e-05,0.0,0 STARLINK-5851,1 55947U 23037AK  23273.70413110  .00001362  00000-0  12188-3 0  9994,2 55947  70.0024  10.7670 0002902 265.0646  95.0181 14.98339214 30863,6950.164,96.106,574.046,570.012,0.0
55947.0,STARLINK-5851,PAYLOAD,2023-10-01 10:31:25,14.98333425,0.0002984,70.0019,8.9138,267.3957,92.686,4.5227e-05,4.47e-06,0.0,0 STARLINK-5851,1 55947U 23037AK  23274.43849438  .00000447  00000-0  45227-4 0  9995,2 55947  70.0019   8.9138 0002984 267.3957  92.6860 14.98333425 30972,6950.182,96.107,574.121,569.973,0.0
55947.0,STARLINK-5851,PAYLOAD,2023-10-01 16:55:57,14.98338072,0.000272,70.0026,8.241,264.2955,95.7894,8.8442e-05,9.63e-06,0.0,0 STARLINK-5851,1 55947U 23037AK  23274.70552931  .00000963  00000-0  88442-4 0  9993,2 55947  70.0026   8.2410 0002720 264.2955  95.7894 14.98338072 30679,6950.168,96.106,573.923,570.142,0.0
55947.0,STARLINK-5851,PAYLOAD,2023-10-02 10:33:27,14.98323127,0.0002621,70.0028,6.3911,266.9425,93.1434,-0.00013914,-1.752e-05,0.0,0 STARLINK-5851,1 55947U 23037AK  23275.43990487 -.00001752  00000-0 -13914-3 0  9996,2 55947  70.0028   6.3911 0002621 266.9425  93.1434 14.98323127 31125,6950.214,96.107,573.901,570.257,0.0
55947.0,STARLINK-5851,PAYLOAD,2023-10-02 15:21:52,14.98323542,0.0002603,70.0023,5.8858,262.2647,97.8217,-0.00015049,-1.888e-05,0.0,0 STARLINK-5851,1 55947U 23037AK  23275.64018523 -.00001888  00000-0 -15049-3 0  9992,2 55947  70.0023   5.8858 0002603 262.2647  97.8217 14.98323542 30815,6950.213,96.107,573.887,570.269,0.0
55947.0,STARLINK-5851,PAYLOAD,2023-10-03 12:11:36,14.98330541,0.0002744,70.002,3.698,264.8414,95.2432,-3.6576e-05,-5.29e-06,0.0,0 STARLINK-5851,1 55947U 23037AK  23276.50805830 -.00000529  00000-0 -36576-4 0  9993,2 55947  70.0020   3.6980 0002744 264.8414  95.2432 14.98330541 31280,6950.191,96.107,573.963,570.149,0.0
55947.0,STARLINK-5851,PAYLOAD,2023-10-03 13:47:44,14.98332202,0.0002741,70.002,3.5297,264.9572,95.1274,-1.9221e-05,-3.22e-06,0.0,0 STARLINK-5851,1 55947U 23037AK  23276.57481670 -.00000322  00000-0 -19221-4 0  9991,2 55947  70.0020   3.5297 0002741 264.9572  95.1274 14.98332202 30955,6950.186,96.107,573.956,570.146,0.0
55947.0,STARLINK-5851,PAYLOAD,2023-10-03 15:23:52,14.98334257,0.0002838,70.0019,3.3612,267.9452,92.1383,-1.9811e-05,-3.29e-06,0.0,0 STARLINK-5851,1 55947U 23037AK  23276.64157531 -.00000329  00000-0 -19811-4 0  9997,2 55947  70.0019   3.3612 0002838 267.9452  92.1383 14.98334257 30960,6950.18,96.107,574.017,570.072,0.0
55947.0,STARLINK-5851,PAYLOAD,2023-10-04 13:49:44,14.98332288,0.0002798,70.0017,1.0024,267.0837,93.0002,0.00018377,2.101e-05,0.0,0 STARLINK-5851,1 55947U 23037AK  23277.57621110  .00002101  00000-0  18377-3 0  9992,2 55947  70.0017   1.0024 0002798 267.0837  93.0002 14.98332288 31100,6950.186,96.107,573.995,570.106,0.0
55947.0,STARLINK-5851,PAYLOAD,2023-10-04 15:25:52,14.98334067,0.0002785,70.0018,0.8343,267.1998,92.8843,0.00020037,2.299e-05,0.0,0 STARLINK-5851,1 55947U 23037AK  23277.64296942  .00002299  00000-0  20037-3 0  9995,2 55947  70.0018   0.8343 0002785 267.1998  92.8843 14.98334067 31452,6950.18,96.107,573.981,570.11,0.0
55947.0,STARLINK-5851,PAYLOAD,2023-10-04 23:26:34,14.98316594,0.000296,70.0023,359.9943,273.6456,86.4364,-8.3073e-05,-1.084e-05,0.0,0 STARLINK-5851,1 55947U 23037AK  23277.97678894 -.00001084  00000-0 -83073-4 0  9994,2 55947  70.0023 359.9943 0002960 273.6456  86.4364 14.98316594 31506,6950.234,96.108,574.157,570.042,0.0
55947.0,STARLINK-5851,PAYLOAD,2023-10-05 10:39:33,14.98296524,0.0002907,70.0021,358.8151,269.7994,90.2832,-0.00033872,-4.129e-05,0.0,0 STARLINK-5851,1 55947U 23037AK  23278.44413561 -.00004129  00000-0 -33872-3 0  9999,2 55947  70.0021 358.8151 0002907 269.7994  90.2832 14.98296524 31577,6950.296,96.109,574.182,570.141,0.0
55947.0,STARLINK-5851,PAYLOAD,2023-10-05 13:51:48,14.98308335,0.0002839,70.002,358.4797,266.1615,93.922,-0.00020646,-2.554e-05,0.0,0 STARLINK-5851,1 55947U 23037AK  23278.57764593 -.00002554  00000-0 -20646-3 0  9992,2 55947  70.0020 358.4797 0002839 266.1615  93.9220 14.98308335 31253,6950.26,96.108,574.098,570.152,0.0
55947.0,STARLINK-5851,PAYLOAD,2023-10-05 15:27:56,14.98310075,0.0002884,70.002,358.3117,266.571,93.5119,-0.00019601,-2.43e-05,0.0,0 STARLINK-5851,1 55947U 23037AK  23278.64440536 -.00002430  00000-0 -19601-3 0  9990,2 55947  70.0020 358.3117 0002884 266.5710  93.5119 14.98310075 31604,6950.255,96.108,574.124,570.115,0.0
55947.0,STARLINK-5851,PAYLOAD,2023-10-06 10:41:31,14.98335473,0.0002834,70.0023,356.2906,266.6139,93.4696,3.1698e-05,2.85e-06,0.0,0 STARLINK-5851,1 55947U 23037AK  23279.44550576  .00000285  00000-0  31698-4 0  9990,2 55947  70.0023 356.2906 0002834 266.6139  93.4696 14.98335473 31722,6950.176,96.107,574.011,570.071,0.0
55947.0,STARLINK-5851,PAYLOAD,2023-10-06 13:53:47,14.98341438,0.0002704,70.0026,355.9567,261.279,98.8062,9.0843e-05,9.91e-06,0.0,0 STARLINK-5851,1 55947U 23037AK  23279.57901975  .00000991  00000-0  90843-4 0  9998,2 55947  70.0026 355.9567 0002704 261.2790  98.8062 14.98341438 31403,6950.158,96.106,573.902,570.143,0.0
55947.0,STARLINK-5851,PAYLOAD,2023-10-06 15:29:55,14.98342153,0.0002722,70.0025,355.788,262.883,97.2019,9.8759e-05,1.086e-05,0.0,0 STARLINK-5851,1 55947U 23037AK  23279.64577886  .00001086  00000-0  98759-4 0  9996,2 55947  70.0025 355.7880 0002722 262.8830  97.2019 14.98342153 31758,6950.155,96.106,573.912,570.128,0.0
55947.0,STARLINK-5851,PAYLOAD,2023-10-07 10:43:32,14.98322178,0.0002961,70.002,353.7676,271.7549,88.327,0.00046698,5.482e-05,0.0,0 STARLINK-5851,1 55947U 23037AK  23280.44690081  .00005482  00000-0  46698-3 0  9997,2 55947  70.0020 353.7676 0002961 271.7549  88.3270 14.98322178 31873,6950.217,96.108,574.14,570.024,0.0
55947.0,STARLINK-5851,PAYLOAD,2023-10-07 13:55:48,14.98326265,0.0003237,70.0022,353.4307,273.8031,86.2758,0.00045551,5.346e-05,0.0,0 STARLINK-5851,1 55947U 23037AK  23280.58041789  .00005346  00000-0  45551-3 0  9993,2 55947  70.0022 353.4307 0003237 273.8031  86.2758 14.98326265 31553,6950.204,96.107,574.319,569.82,0.0
55947.0,STARLINK-5851,PAYLOAD,2023-10-07 15:31:56,14.98328346,0.0002915,70.0023,353.2608,267.0485,93.034,0.0004447,5.217e-05,0.0,0 STARLINK-5851,1 55947U 23037AK  23280.64717658  .00005217  00000-0  44470-3 0  9991,2 55947  70.0023 353.2608 0002915 267.0485  93.0340 14.98328346 31562,6950.198,96.107,574.089,570.037,0.0
55947.0,STARLINK-5851,PAYLOAD,2023-10-08 10:45:33,14.98310714,0.0003318,70.0013,351.24,265.5516,94.5264,0.00033037,3.849e-05,0.0,0 STARLINK-5851,1 55947U 23037AK  23281.44830632  .00003849  00000-0  33037-3 0  9994,2 55947  70.0013 351.2400 0003318 265.5516  94.5264 14.98310714 32028,6950.253,96.108,574.424,569.811,0.0
55947.0,STARLINK-5851,PAYLOAD,2023-10-08 13:57:49,14.98313302,0.0003324,70.0014,350.9034,266.1512,93.9268,0.00033431,3.896e-05,0.0,0 STARLINK-5851,1 55947U 23037AK  23281.58182561  .00003896  00000-0  33431-3 0  9990,2 55947  70.0014 350.9034 0003324 266.1512  93.9268 14.98313302 31705,6950.245,96.108,574.42,569.799,0.0
55947.0,STARLINK-5851,PAYLOAD,2023-10-08 21:58:29,14.98347126,0.0003161,70.0017,350.0616,273.3816,86.6982,-0.0002106,-2.606e-05,0.0,0 STARLINK-5851,1 55947U 23037AK  23281.91561524 -.00002606  00000-0 -21060-3 0  9992,2 55947  70.0017 350.0616 0003161 273.3816  86.6982 14.98347126 32097,6950.14,96.106,574.202,569.808,0.0
55947.0,STARLINK-5851,PAYLOAD,2023-10-09 09:11:25,14.98337282,0.0003033,70.0018,348.886,266.2294,93.8518,-9.2723e-05,-1.199e-05,0.0,0 STARLINK-5851,1 55947U 23037AK  23282.38293628 -.00001199  00000-0 -92723-4 0  9992,2 55947  70.0018 348.8860 0003033 266.2294  93.8518 14.98337282 32168,6950.17,96.107,574.143,569.927,0.0
